GLOBALSTAR M075         
1 37192U 10054E   24151.63499549 -.00000079  00000+0  13989-3 0  9993
2 37192  51.9953 266.3233 0000746 130.9168 332.6198 12.62274933627697
GLOBALSTAR M073         
1 37193U 10054F   24152.51982602 -.00000083  00000+0  11482-3 0  9990
2 37193  52.0032 177.1589 0000108 208.8593 316.0897 12.62266014629684
GLOBALSTAR M083         
1 37739U 11033A   24152.11794302 -.00000099  00000+0  28460-4 0  9990
2 37739  51.9840 127.6324 0000433  66.0489  13.3340 12.62270158598961
GLOBALSTAR M088         
1 37740U 11033B   24151.86405920 -.00000090  00000+0  79259-4 0  9991
2 37740  51.9759  34.2182 0000885  83.6451  41.8174 12.62263729594112
GLOBALSTAR M091         
1 37741U 11033C   24151.87258277 -.00000081  00000+0  12624-3 0  9996
2 37741  52.0016 357.0666 0001151  97.0981   5.9297 12.62263219594906
GLOBALSTAR M085         
1 37742U 11033D   24151.78128385 -.00000076  00000+0  15614-3 0  9999
2 37742  51.9879 308.7197 0001060 113.3331 355.7361 12.62271517595408
GLOBALSTAR M081         
1 37743U 11033E   24151.89883939 -.00000080  00000+0  13279-3 0  9995
2 37743  51.9971 310.9139 0001004 122.0577  40.6608 12.62265464595565
GLOBALSTAR M089         
1 37744U 11033F   24152.47432463 -.00000094  00000+0  55786-4 0  9998
2 37744  51.9936 263.4636 0000417 161.5942 276.1682 12.62264292596738
